[
    {
        "Altitude(m)": 559576.6926505835,
        "Argument of Periapsis(deg)": 0.019868973332140504,
        "Eccentricity": 0.0,
        "Inclination(deg)": 53.0,
        "Latitude(deg)": 51.72410579461889,
        "Longitude(deg)": 0.8573996760686395,
        "Mean Anomaly(deg)": -258.81612139726724,
        "RAAN(deg)": 354.97043010558406,
        "Satellite Name": "Starlink Shell 1 1566",
        "Satellite Number": 1566,
        "Semi-Major Axis(m)": 6931778.249405717,
        "Time(s)": 570
    },
    {
        "Altitude(m)": 559540.041460092,
        "Argument of Periapsis(deg)": 0.02021755181165174,
        "Eccentricity": 0.0,
        "Inclination(deg)": 53.0,
        "Latitude(deg)": 51.56332065000347,
        "Longitude(deg)": 1.7898473432091848,
        "Mean Anomaly(deg)": -258.1892901937105,
        "RAAN(deg)": 354.96991133550654,
        "Satellite Name": "Starlink Shell 1 1566",
        "Satellite Number": 1566,
        "Semi-Major Axis(m)": 6931778.249405717,
        "Time(s)": 580
    },
    {
        "Altitude(m)": 559501.538679614,
        "Argument of Periapsis(deg)": 0.020566130291162974,
        "Eccentricity": 0.0,
        "Inclination(deg)": 53.0,
        "Latitude(deg)": 51.3945129954828,
        "Longitude(deg)": 2.715286730738684,
        "Mean Anomaly(deg)": -257.56245899015374,
        "RAAN(deg)": 354.96939256542913,
        "Satellite Name": "Starlink Shell 1 1566",
        "Satellite Number": 1566,
        "Semi-Major Axis(m)": 6931778.249405717,
        "Time(s)": 590
    },
    {
        "Altitude(m)": 559461.2076033072,
        "Argument of Periapsis(deg)": 0.020914708770674213,
        "Eccentricity": 0.0,
        "Inclination(deg)": 53.0,
        "Latitude(deg)": 51.217788863127154,
        "Longitude(deg)": 3.6334768631010603,
        "Mean Anomaly(deg)": -256.93562778659714,
        "RAAN(deg)": 354.96887379535167,
        "Satellite Name": "Starlink Shell 1 1566",
        "Satellite Number": 1566,
        "Semi-Major Axis(m)": 6931778.249405717,
        "Time(s)": 600
    },
    {
        "Altitude(m)": 559419.072648644,
        "Argument of Periapsis(deg)": 0.021263287250185448,
        "Eccentricity": 0.0,
        "Inclination(deg)": 53.0,
        "Latitude(deg)": 51.03325730659189,
        "Longitude(deg)": 4.544193190374275,
        "Mean Anomaly(deg)": -256.3087965830404,
        "RAAN(deg)": 354.96835502527415,
        "Satellite Name": "Starlink Shell 1 1566",
        "Satellite Number": 1566,
        "Semi-Major Axis(m)": 6931778.249405717,
        "Time(s)": 610
    },
    {
        "Altitude(m)": 559375.1593444395,
        "Argument of Periapsis(deg)": 0.021611865729696686,
        "Eccentricity": 0.0,
        "Inclination(deg)": 53.0,
        "Latitude(deg)": 50.84103011573885,
        "Longitude(deg)": 5.4472281148984765,
        "Mean Anomaly(deg)": -255.6819653794837,
        "RAAN(deg)": 354.96783625519674,
        "Satellite Name": "Starlink Shell 1 1566",
        "Satellite Number": 1566,
        "Semi-Major Axis(m)": 6931778.249405717,
        "Time(s)": 620
    },
    {
        "Altitude(m)": 559329.4943183498,
        "Argument of Periapsis(deg)": 0.02196044420920792,
        "Eccentricity": 0.0,
        "Inclination(deg)": 53.0,
        "Latitude(deg)": 50.641221534146524,
        "Longitude(deg)": 6.342389764271934,
        "Mean Anomaly(deg)": -255.0551341759269,
        "RAAN(deg)": 354.9673174851192,
        "Satellite Name": "Starlink Shell 1 1566",
        "Satellite Number": 1566,
        "Semi-Major Axis(m)": 6931778.249405717,
        "Time(s)": 630
    },
    {
        "Altitude(m)": 559282.1052838335,
        "Argument of Periapsis(deg)": 0.02230902268871916,
        "Eccentricity": 0.0,
        "Inclination(deg)": 53.0,
        "Latitude(deg)": 50.433947980840045,
        "Longitude(deg)": 7.229503217499979,
        "Mean Anomaly(deg)": -254.4283029723702,
        "RAAN(deg)": 354.96679871504176,
        "Satellite Name": "Starlink Shell 1 1566",
        "Satellite Number": 1566,
        "Semi-Major Axis(m)": 6931778.249405717,
        "Time(s)": 640
    },
    {
        "Altitude(m)": 559233.0210265418,
        "Argument of Periapsis(deg)": 0.022657601168230398,
        "Eccentricity": 0.0,
        "Inclination(deg)": 53.0,
        "Latitude(deg)": 50.219327777443645,
        "Longitude(deg)": 8.108409146075564,
        "Mean Anomaly(deg)": -253.8014717688135,
        "RAAN(deg)": 354.9662799449643,
        "Satellite Name": "Starlink Shell 1 1566",
        "Satellite Number": 1566,
        "Semi-Major Axis(m)": 6931778.249405717,
        "Time(s)": 650
    },
    {
        "Altitude(m)": 559182.2713902049,
        "Argument of Periapsis(deg)": 0.023006179647741636,
        "Eccentricity": 0.0,
        "Inclination(deg)": 53.0,
        "Latitude(deg)": 49.997480881858834,
        "Longitude(deg)": 8.97896407734768,
        "Mean Anomaly(deg)": -253.17464056525685,
        "RAAN(deg)": 354.9657611748868,
        "Satellite Name": "Starlink Shell 1 1566",
        "Satellite Number": 1566,
        "Semi-Major Axis(m)": 6931778.249405717,
        "Time(s)": 660
    },
    {
        "Altitude(m)": 559129.8872619774,
        "Argument of Periapsis(deg)": 0.023354758127252868,
        "Eccentricity": 0.0,
        "Inclination(deg)": 53.0,
        "Latitude(deg)": 49.76852862944105,
        "Longitude(deg)": 9.841040604318241,
        "Mean Anomaly(deg)": -252.54780936170008,
        "RAAN(deg)": 354.9652424048093,
        "Satellite Name": "Starlink Shell 1 1566",
        "Satellite Number": 1566,
        "Semi-Major Axis(m)": 6931778.249405717,
        "Time(s)": 670
    },
    {
        "Altitude(m)": 559075.9005572537,
        "Argument of Periapsis(deg)": 0.023703336606764106,
        "Eccentricity": 0.0,
        "Inclination(deg)": 53.0,
        "Latitude(deg)": 49.53259348252837,
        "Longitude(deg)": 10.694526034196402,
        "Mean Anomaly(deg)": -251.92097815814336,
        "RAAN(deg)": 354.96472363473185,
        "Satellite Name": "Starlink Shell 1 1566",
        "Satellite Number": 1566,
        "Semi-Major Axis(m)": 6931778.249405717,
        "Time(s)": 680
    },
    {
        "Altitude(m)": 559020.3442039943,
        "Argument of Periapsis(deg)": 0.024051915086275345,
        "Eccentricity": 0.0,
        "Inclination(deg)": 53.0,
        "Latitude(deg)": 49.28979878906615,
        "Longitude(deg)": 11.539322506690464,
        "Mean Anomaly(deg)": -251.2941469545867,
        "RAAN(deg)": 354.9642048646544,
        "Satellite Name": "Starlink Shell 1 1566",
        "Satellite Number": 1566,
        "Semi-Major Axis(m)": 6931778.249405717,
        "Time(s)": 690
    },
    {
        "Altitude(m)": 558963.2521264994,
        "Argument of Periapsis(deg)": 0.024400493565786583,
        "Eccentricity": 0.0,
        "Inclination(deg)": 53.0,
        "Latitude(deg)": 49.04026855094519,
        "Longitude(deg)": 12.375347074368555,
        "Mean Anomaly(deg)": -250.66731575103,
        "RAAN(deg)": 354.9636860945769,
        "Satellite Name": "Starlink Shell 1 1566",
        "Satellite Number": 1566,
        "Semi-Major Axis(m)": 6931778.249405717,
        "Time(s)": 700
    },
    {
        "Altitude(m)": 558904.6592287387,
        "Argument of Periapsis(deg)": 0.024749072045297815,
        "Eccentricity": 0.0,
        "Inclination(deg)": 53.0,
        "Latitude(deg)": 48.78412720256059,
        "Longitude(deg)": 13.202530237327307,
        "Mean Anomaly(deg)": -250.04048454747323,
        "RAAN(deg)": 354.96316732449947,
        "Satellite Name": "Starlink Shell 1 1566",
        "Satellite Number": 1566,
        "Semi-Major Axis(m)": 6931778.249405717,
        "Time(s)": 710
    },
    {
        "Altitude(m)": 558844.6013771169,
        "Argument of Periapsis(deg)": 0.025097650524809053,
        "Eccentricity": 0.0,
        "Inclination(deg)": 53.0,
        "Latitude(deg)": 48.52149939999493,
        "Longitude(deg)": 14.02081596290137,
        "Mean Anomaly(deg)": -249.41365334391648,
        "RAAN(deg)": 354.962648554422,
        "Satellite Name": "Starlink Shell 1 1566",
        "Satellite Number": 1566,
        "Semi-Major Axis(m)": 6931778.249405717,
        "Time(s)": 720
    },
    {
        "Altitude(m)": 558783.1153828179,
        "Argument of Periapsis(deg)": 0.02544622900432029,
        "Eccentricity": 0.0,
        "Inclination(deg)": 53.0,
        "Latitude(deg)": 48.25250982112321,
        "Longitude(deg)": 14.830161682337888,
        "Mean Anomaly(deg)": -248.78682214035982,
        "RAAN(deg)": 354.9621297843445,
        "Satellite Name": "Starlink Shell 1 1566",
        "Satellite Number": 1566,
        "Semi-Major Axis(m)": 6931778.249405717,
        "Time(s)": 730
    },
    {
        "Altitude(m)": 558720.2389836322,
        "Argument of Periapsis(deg)": 0.02579480748383153,
        "Eccentricity": 0.0,
        "Inclination(deg)": 53.0,
        "Latitude(deg)": 47.97728297683484,
        "Longitude(deg)": 15.630536756159936,
        "Mean Anomaly(deg)": -248.15999093680304,
        "RAAN(deg)": 354.961611014267,
        "Satellite Name": "Starlink Shell 1 1566",
        "Satellite Number": 1566,
        "Semi-Major Axis(m)": 6931778.249405717,
        "Time(s)": 740
    },
    {
        "Altitude(m)": 558656.0108253063,
        "Argument of Periapsis(deg)": 0.026143385963342765,
        "Eccentricity": 0.0,
        "Inclination(deg)": 53.0,
        "Latitude(deg)": 47.6959430334932,
        "Longitude(deg)": 16.421922438308744,
        "Mean Anomaly(deg)": -247.5331597332464,
        "RAAN(deg)": 354.96109224418956,
        "Satellite Name": "Starlink Shell 1 1566",
        "Satellite Number": 1566,
        "Semi-Major Axis(m)": 6931778.249405717,
        "Time(s)": 750
    }
]